{
  "norad_id": 58706,
  "name": "STARLINK-11075 [DTC]",
  "history": [
    {
      "epoch": "2026-03-28T16:59:15.211680Z",
      "apogee_km": 360.35776522606375,
      "perigee_km": 358.97233836817304,
      "latitude_deg": -4.000951406999871e-06,
      "longitude_deg": 99.38962491812498,
      "height_km": 360.25639145537707,
      "semi_major_axis_km": 6737.802051797118,
      "eccentricity": 0.00010281,
      "inclination_deg": 53.1593,
      "raan_deg": 180.3274,
      "arg_perigee_deg": 62.2525,
      "mean_anomaly_deg": 297.8597,
      "mean_motion_rev_day": 15.69731561
    },
    {
      "epoch": "2026-03-28T23:05:59.795232Z",
      "apogee_km": 360.4842106953083,
      "perigee_km": 358.939895692316,
      "latitude_deg": -5.615799960188174e-05,
      "longitude_deg": 6.195494456673828,
      "height_km": 360.5607934456927,
      "semi_major_axis_km": 6737.849053193811,
      "eccentricity": 0.0001146,
      "inclination_deg": 53.1586,
      "raan_deg": 179.0701,
      "arg_perigee_deg": 85.192,
      "mean_anomaly_deg": 274.9228,
      "mean_motion_rev_day": 15.69715136
    },
    {
      "epoch": "2026-03-30T05:39:40.712832Z",
      "apogee_km": 360.4545488119429,
      "perigee_km": 359.0629038286279,
      "latitude_deg": -1.3324368434737297e-05,
      "longitude_deg": -99.75937356843183,
      "height_km": 360.68827336389234,
      "semi_major_axis_km": 6737.895726320285,
      "eccentricity": 0.00010327,
      "inclination_deg": 53.159,
      "raan_deg": 172.7908,
      "arg_perigee_deg": 91.3102,
      "mean_anomaly_deg": 268.8034,
      "mean_motion_rev_day": 15.69698826
    },
    {
      "epoch": "2026-03-30T14:49:47.004960Z",
      "apogee_km": 360.6987090310349,
      "perigee_km": 358.79916422778024,
      "latitude_deg": 1.282405005857373e-05,
      "longitude_deg": 120.45619575038667,
      "height_km": 360.7422119073083,
      "semi_major_axis_km": 6737.885936629407,
      "eccentricity": 0.00014096,
      "inclination_deg": 53.1598,
      "raan_deg": 170.9091,
      "arg_perigee_deg": 94.8355,
      "mean_anomaly_deg": 265.2824,
      "mean_motion_rev_day": 15.69702247
    },
    {
      "epoch": "2026-03-30T22:28:12.132192Z",
      "apogee_km": 360.5973385597863,
      "perigee_km": 358.8938670801417,
      "latitude_deg": -6.0609523832870664e-05,
      "longitude_deg": 3.9704681009328677,
      "height_km": 360.56209509215887,
      "semi_major_axis_km": 6737.882602819964,
      "eccentricity": 0.00012641,
      "inclination_deg": 53.1597,
      "raan_deg": 169.3419,
      "arg_perigee_deg": 83.4654,
      "mean_anomaly_deg": 276.6507,
      "mean_motion_rev_day": 15.69703412
    }
  ]
}